{"spkid": "50050540", "covariance": {"labels": ["e", "q", "tp", "node", "peri", "i", "A2"], "elements": [{"units": null, "title": "eccentricity", "value": ".1827030922961494", "sigma": 1.34974436814158e-07, "name": "e", "label": "e"}, {"value": ".8768874075607638", "title": "perihelion distance", "units": "au", "name": "q", "sigma": 1.44925894698859e-07, "label": "q"}, {"label": "tp", "units": "TDB", "value": "2458820.731004751322", "title": "time of perihelion passage", "name": "tp", "sigma": 2.02927954553685e-05}, {"label": "node", "name": "om", "sigma": 4.65132441283007e-06, "value": "203.0357477772567", "title": "longitude of the ascending node", "units": "deg"}, {"value": "280.822793581332", "title": "argument of perihelion", "units": "deg", "sigma": 2.28163267831035e-05, "name": "w", "label": "peri"}, {"sigma": 1.37992107139303e-05, "name": "i", "units": "deg", "title": "inclination", "value": "15.60170800874715", "label": "i"}], "data": [["1.821809859329907E-14", "-1.956036652317919E-14", "-2.780953733861427E-13", "2.242099707185638E-13", "1.665929143737502E-12", "5.953273317306661E-13", "-1.987430116201565E-22"], ["-1.956036652317919E-14", "2.100351495426464E-14", "2.940514327012591E-13", "-2.406369072247355E-13", "-1.792149590315663E-12", "-6.41204214986664E-13", "2.216123934483032E-22"], ["-2.780953733861427E-13", "2.940514327012591E-13", "4.117975473934254E-10", "5.191706621010711E-12", "3.517747445193252E-10", "1.895869649079782E-10", "-3.838727026893758E-20"], ["2.242099707185638E-13", "-2.406369072247355E-13", "5.191706621010711E-12", "2.163481879338902E-11", "1.041508044306909E-11", "1.310136470681977E-11", "-2.342878021571312E-21"], ["1.665929143737502E-12", "-1.792149590315663E-12", "3.517747445193252E-10", "1.041508044306909E-11", "5.205847678733646E-10", "2.385455766525237E-10", "-5.33339577279294E-20"], ["5.953273317306661E-13", "-6.41204214986664E-13", "1.895869649079782E-10", "1.310136470681977E-11", "2.385455766525237E-10", "1.904182163274479E-10", "-2.801665007687529E-20"], ["-1.987430116201565E-22", "2.216123934483032E-22", "-3.838727026893758E-20", "-2.342878021571312E-21", "-5.33339577279294E-20", "-2.801665007687529E-20", "4.119139995469906E-29"]], "epoch": "2458687.5"}, "elements": [{"units": null, "title": "eccentricity", "value": ".1828480898831574", "sigma": "1.3497E-7", "name": "e", "label": "e"}, {"label": "a", "name": "a", "sigma": "3.4186E-9", "value": "1.072649432585181", "title": "semi-major axis", "units": "au"}, {"sigma": "1.4476E-7", "name": "q", "value": ".8765175327227277", "title": "perihelion distance", "units": "au", "label": "q"}, {"title": "inclination; angle with respect to x-y ecliptic plane", "value": "15.59547156069973", "units": "deg", "name": "i", "sigma": "1.3814E-5", "label": "i"}, {"label": "node", "units": "deg", "title": "longitude of the ascending node", "value": "202.9767269745838", "sigma": "4.6647E-6", "name": "om"}, {"title": "argument of perihelion", "value": "280.9707912800848", "units": "deg", "sigma": "2.2664E-5", "name": "w", "label": "peri"}, {"label": "M", "name": "ma", "sigma": "1.8942E-5", "title": "mean anomaly", "value": "311.0547247875623", "units": "deg"}, {"value": "2461255.668784049616", "title": "time of perihelion passage", "units": "TDB", "sigma": "2.143E-5", "name": "tp", "label": "tp"}, {"name": "per", "sigma": "1.9398E-6", "title": "sidereal orbital period", "value": "405.7748612437009", "units": "d", "label": "period"}, {"sigma": "4.2413E-9", "name": "n", "units": "deg/d", "title": "mean motion", "value": ".8871914807551141", "label": "n"}, {"name": "ad", "sigma": "4.0437E-9", "value": "1.268781332447634", "title": "aphelion distance", "units": "au", "label": "Q"}], "epoch": "2461200.5"}